NORAD_CAT_ID,OBJECT_NAME,OBJECT_TYPE,EPOCH,MEAN_MOTION,ECCENTRICITY,INCLINATION,RA_OF_ASC_NODE,ARG_OF_PERICENTER,MEAN_ANOMALY,BSTAR,MEAN_MOTION_DOT,MEAN_MOTION_DDOT,TLE_LINE0,TLE_LINE1,TLE_LINE2,SEMIMAJOR_AXIS,PERIOD,APOGEE,PERIGEE,DECAYED
54205.0,STARLINK-5249,PAYLOAD,2024-03-11 14:00:57,15.088394,0.0001528,53.2187,22.3586,80.7628,279.3537,6.2841e-05,7.12e-06,0.0,0 STARLINK-5249,1 54205U 22141BA  24071.58400280  .00000712  00000-0  62841-4 0  9992,2 54205  53.2187  22.3586 0001528  80.7628 279.3537 15.08839400 76082,6917.882,95.438,540.804,538.69,0.0
54205.0,STARLINK-5249,PAYLOAD,2024-03-12 20:13:17,15.08841049,0.0001834,53.2203,16.7061,97.7812,262.3388,1.3897e-05,-6.7e-07,0.0,0 STARLINK-5249,1 54205U 22141BA  24072.84256489 -.00000067  00000-0  13897-4 0  9993,2 54205  53.2203  16.7061 0001834  97.7812 262.3388 15.08841049 76278,6917.877,95.437,541.011,538.473,0.0
54205.0,STARLINK-5249,PAYLOAD,2024-03-13 13:42:31,15.08844682,0.0001488,53.2186,13.4371,99.8201,260.2959,-3.1352e-05,-7.87e-06,0.0,0 STARLINK-5249,1 54205U 22141BA  24073.57120195 -.00000787  00000-0 -31352-4 0  9994,2 54205  53.2186  13.4371 0001488  99.8201 260.2959 15.08844682 76385,6917.866,95.437,540.76,538.702,0.0
54205.0,STARLINK-5249,PAYLOAD,2024-03-13 20:04:04,15.08839827,0.0001315,53.2181,12.2478,97.5322,262.5819,0.00012714,1.736e-05,0.0,0 STARLINK-5249,1 54205U 22141BA  24073.83616181  .00001736  00000-0  12714-3 0  9991,2 54205  53.2181  12.2478 0001315  97.5322 262.5819 15.08839827 76423,6917.881,95.438,540.656,538.836,0.0
54205.0,STARLINK-5249,PAYLOAD,2024-03-14 02:25:36,15.08851812,0.0001412,53.2183,11.0593,100.7823,259.3328,0.00013181,1.811e-05,0.0,0 STARLINK-5249,1 54205U 22141BA  24074.10111468  .00001811  00000-0  13181-3 0  9993,2 54205  53.2183  11.0593 0001412 100.7823 259.3328 15.08851812 76697,6917.844,95.437,540.686,538.732,0.0
54205.0,STARLINK-5249,PAYLOAD,2024-03-14 05:36:22,15.08853068,0.0001516,53.2176,10.4638,107.3471,252.7687,0.00020878,3.037e-05,0.0,0 STARLINK-5249,1 54205U 22141BA  24074.23359613  .00003037  00000-0  20878-3 0  9996,2 54205  53.2176  10.4638 0001516 107.3471 252.7687 15.08853068 76486,6917.84,95.437,540.754,538.657,0.0
54205.0,STARLINK-5249,PAYLOAD,2024-03-14 19:54:51,15.08841841,0.0001903,53.2171,7.7853,93.4614,266.6596,0.00011665,1.569e-05,0.0,0 STARLINK-5249,1 54205U 22141BA  24074.82976372  .00001569  00000-0  11665-3 0  9990,2 54205  53.2171   7.7853 0001903  93.4614 266.6596 15.08841841 76808,6917.875,95.437,541.056,538.423,0.0
54205.0,STARLINK-5249,PAYLOAD,2024-03-15 22:56:24,15.08845479,0.0001458,53.2179,2.7301,101.0717,259.0439,5.0645e-05,5.18e-06,0.0,0 STARLINK-5249,1 54205U 22141BA  24075.95583925  .00000518  00000-0  50645-4 0  9998,2 54205  53.2179   2.7301 0001458 101.0717 259.0439 15.08845479 76740,6917.864,95.437,540.737,538.72,0.0
54205.0,STARLINK-5249,PAYLOAD,2024-03-16 00:31:47,15.08845425,0.0001421,53.2179,2.4311,99.231,260.8843,9.952e-05,1.296e-05,0.0,0 STARLINK-5249,1 54205U 22141BA  24076.02207916  .00001296  00000-0  99520-4 0  9999,2 54205  53.2179   2.4311 0001421  99.2310 260.8843 15.08845425 76981,6917.864,95.437,540.712,538.746,0.0
54205.0,STARLINK-5249,PAYLOAD,2024-03-16 05:17:56,15.08848193,0.0001467,53.2182,1.5404,100.9903,259.1255,5.9804e-05,6.64e-06,0.0,0 STARLINK-5249,1 54205U 22141BA  24076.22079675  .00000664  00000-0  59804-4 0  9999,2 54205  53.2182   1.5404 0001467 100.9903 259.1255 15.08848193 76787,6917.855,95.437,540.735,538.705,0.0
54205.0,STARLINK-5249,PAYLOAD,2024-03-16 22:47:12,15.08834016,0.0001419,53.218,358.2663,87.4448,272.6706,-5.4261e-05,-1.151e-05,0.0,0 STARLINK-5249,1 54205U 22141BA  24076.94944584 -.00001151  00000-0 -54261-4 0  9994,2 54205  53.2180 358.2663 0001419  87.4448 272.6706 15.08834016 76896,6917.899,95.438,540.745,538.782,0.0
54205.0,STARLINK-5249,PAYLOAD,2024-03-17 03:33:21,15.08836607,0.0001409,53.2188,357.3742,91.73,268.3854,2.1547e-05,5.5e-07,0.0,0 STARLINK-5249,1 54205U 22141BA  24077.14816831  .00000055  00000-0  21547-4 0  9991,2 54205  53.2188 357.3742 0001409  91.7300 268.3854 15.08836607 77150,6917.891,95.438,540.73,538.781,0.0
54205.0,STARLINK-5249,PAYLOAD,2024-03-17 22:37:59,15.08839845,0.0001679,53.2188,353.8039,92.8843,267.2341,9.3923e-05,1.207e-05,0.0,0 STARLINK-5249,1 54205U 22141BA  24077.94304540  .00001207  00000-0  93923-4 0  9995,2 54205  53.2188 353.8039 0001679  92.8843 267.2341 15.08839845 77047,6917.881,95.438,540.907,538.584,0.0
54205.0,STARLINK-5249,PAYLOAD,2024-03-18 03:24:07,15.08850366,0.0001561,53.2192,352.9184,98.0148,262.1021,9.7316e-05,1.262e-05,0.0,0 STARLINK-5249,1 54205U 22141BA  24078.14175911  .00001262  00000-0  97316-4 0  9997,2 54205  53.2192 352.9184 0001561  98.0148 262.1021 15.08850366 77308,6917.849,95.437,540.794,538.634,0.0
54205.0,STARLINK-5249,PAYLOAD,2024-03-18 22:28:46,15.08840568,0.0001563,53.2187,349.3507,87.5026,272.6145,9.9431e-05,1.295e-05,0.0,0 STARLINK-5249,1 54205U 22141BA  24078.93664694  .00001295  00000-0  99431-4 0  9991,2 54205  53.2187 349.3507 0001563  87.5026 272.6145 15.08840568 77194,6917.879,95.438,540.825,538.662,0.0
54205.0,STARLINK-5249,PAYLOAD,2024-03-19 01:39:32,15.08842987,0.0001521,53.2191,348.7566,87.0148,273.1019,0.00011072,1.475e-05,0.0,0 STARLINK-5249,1 54205U 22141BA  24079.06912515  .00001475  00000-0  11072-3 0  9998,2 54205  53.2191 348.7566 0001521  87.0148 273.1019 15.08842987 77442,6917.871,95.437,540.788,538.684,0.0
54205.0,STARLINK-5249,PAYLOAD,2024-03-19 23:54:54,15.08841387,0.0001577,53.2182,344.5947,130.8845,229.2284,-0.00023173,-3.974e-05,0.0,0 STARLINK-5249,1 54205U 22141BA  24079.99646624 -.00003974  00000-0 -23173-3 0  9998,2 54205  53.2182 344.5947 0001577 130.8845 229.2284 15.08841387 77585,6917.876,95.437,540.832,538.65,0.0
54205.0,STARLINK-5249,PAYLOAD,2024-03-20 20:34:56,15.08826227,0.0001402,53.2182,340.7299,97.557,262.5582,-0.00026853,-4.557e-05,0.0,0 STARLINK-5249,1 54205U 22141BA  24080.85760235 -.00004557  00000-0 -26853-3 0  9996,2 54205  53.2182 340.7299 0001402  97.5570 262.5582 15.08826227 77716,6917.922,95.438,540.757,538.818,0.0
54205.0,STARLINK-5249,PAYLOAD,2024-03-20 22:10:20,15.08827081,0.0001526,53.2188,340.4306,80.3484,279.7681,-0.00023702,-4.057e-05,0.0,0 STARLINK-5249,1 54205U 22141BA  24080.92384320 -.00004057  00000-0 -23702-3 0  9996,2 54205  53.2188 340.4306 0001526  80.3484 279.7681 15.08827081 77493,6917.92,95.438,540.841,538.729,0.0
54205.0,STARLINK-5249,PAYLOAD,2024-03-20 23:45:42,15.08830745,0.0001694,53.2195,340.1322,126.4302,233.6846,-0.00030015,-5.061e-05,0.0,0 STARLINK-5249,1 54205U 22141BA  24080.99007906 -.00005061  00000-0 -30015-3 0  9996,2 54205  53.2195 340.1322 0001694 126.4302 233.6846 15.08830745 77508,6917.909,95.438,540.946,538.602,0.0
54205.0,STARLINK-5249,PAYLOAD,2024-03-21 20:25:44,15.0883012,0.0001488,53.2181,336.2679,98.8947,261.2213,0.00043301,6.608e-05,0.0,0 STARLINK-5249,1 54205U 22141BA  24081.85120733  .00006608  00000-0  43301-3 0  9994,2 54205  53.2181 336.2679 0001488  98.8947 261.2213 15.08830120 77863,6917.911,95.438,540.805,538.746,0.0
54205.0,STARLINK-5249,PAYLOAD,2024-03-21 22:01:07,15.08834006,0.0001533,53.2184,335.9709,99.6027,260.5139,0.00049264,7.56e-05,0.0,0 STARLINK-5249,1 54205U 22141BA  24081.91744687  .00007560  00000-0  49264-3 0  9993,2 54205  53.2184 335.9709 0001533  99.6027 260.5139 15.08834006 77647,6917.899,95.438,540.824,538.703,0.0
54205.0,STARLINK-5249,PAYLOAD,2024-03-21 23:36:30,15.08842857,0.0001638,53.2187,335.6727,101.7336,258.384,0.00068201,0.00010584,0.0,0 STARLINK-5249,1 54205U 22141BA  24081.98368620  .00010584  00000-0  68201-3 0  9991,2 54205  53.2187 335.6727 0001638 101.7336 258.3840 15.08842857 77884,6917.872,95.437,540.87,538.604,0.0
54205.0,STARLINK-5249,PAYLOAD,2024-03-22 20:16:31,15.08848639,0.0001242,53.2178,331.8067,93.2465,266.8669,0.00035748,5.407e-05,0.0,0 STARLINK-5249,1 54205U 22141BA  24082.84480435  .00005407  00000-0  35748-3 0  9994,2 54205  53.2178 331.8067 0001242  93.2465 266.8669 15.08848639 78011,6917.854,95.437,540.578,538.86,0.0
54205.0,STARLINK-5249,PAYLOAD,2024-03-22 21:51:53,15.08870139,0.0001503,53.2184,331.51,117.3079,242.8067,0.00095274,0.0001492,0.0,0 STARLINK-5249,1 54205U 22141BA  24082.91104090  .00014920  00000-0  95274-3 0  9992,2 54205  53.2184 331.5100 0001503 117.3079 242.8067 15.08870139 77792,6917.788,95.436,540.693,538.614,0.0
54205.0,STARLINK-5249,PAYLOAD,2024-03-23 20:07:15,15.0885089,0.0001689,53.2175,327.3411,131.8478,228.2658,-0.00078837,-0.00012817,0.0,0 STARLINK-5249,1 54205U 22141BA  24083.83837232 -.00012817  00000-0 -78837-3 0  9996,2 54205  53.2175 327.3411 0001689 131.8478 228.2658 15.08850890 78167,6917.847,95.437,540.881,538.544,0.0
54205.0,STARLINK-5249,PAYLOAD,2024-03-23 21:42:38,15.08834712,9.74e-05,53.2179,327.0495,102.9545,257.1556,-0.001059,-0.00017099,0.0,0 STARLINK-5249,1 54205U 22141BA  24083.90461540 -.00017099  00000-0 -10590-2 0  9997,2 54205  53.2179 327.0495 0000974 102.9545 257.1556 15.08834712 77948,6917.897,95.438,540.435,539.088,0.0
54205.0,STARLINK-5249,PAYLOAD,2024-03-24 08:50:21,15.08808853,0.0001095,53.2165,324.9717,118.8744,241.2358,-0.00081995,-0.00013302,0.0,0 STARLINK-5249,1 54205U 22141BA  24084.36830966 -.00013302  00000-0 -81995-3 0  9991,2 54205  53.2165 324.9717 0001095 118.8744 241.2358 15.08808853 78243,6917.976,95.44,540.598,539.083,0.0
54205.0,STARLINK-5249,PAYLOAD,2024-03-24 21:33:28,15.08819248,0.0001369,53.2182,322.5908,109.6338,250.4802,-0.00047424,-7.823e-05,0.0,0 STARLINK-5249,1 54205U 22141BA  24084.89824758 -.00007823  00000-0 -47424-3 0  9991,2 54205  53.2182 322.5908 0001369 109.6338 250.4802 15.08819248 78098,6917.944,95.439,540.756,538.862,0.0
54205.0,STARLINK-5249,PAYLOAD,2024-03-25 00:44:14,15.08832515,0.0001388,53.2169,321.9889,139.8436,220.2658,-0.00010889,-2.02e-05,0.0,0 STARLINK-5249,1 54205U 22141BA  24085.03072092 -.00002020  00000-0 -10889-3 0  9993,2 54205  53.2169 321.9889 0001388 139.8436 220.2658 15.08832515 78343,6917.903,95.438,540.728,538.808,0.0
